long,lat,id,nombre,sector,origen,grado_de_a,fecha_de_i,año_de_i,mes_de_i,jurisdicci,calle,altura,piso_dpto,calle2,barrio,comuna,codigo_postal,codigo_postal_argentino
-58.4091021098848,-34.6467832669482,1,STAR X,HARDWARE,Nacional,En Operación,ene-12,2012,01,CABA,PEPIRI,758,,,Parque Patricios,Comuna 4,1437.0,C1437EIP
-58.3959038392808,-34.6425712671735,2,IRON MOUNTAIN,BPO,Extranjero,En Operación,Previo Ley 2972,Previo Ley 2972,Previo Ley 2972,CABA,AMANCIO ALCORTA,2482,,,Parque Patricios,Comuna 4,1283.0,C1283AAX
-58.3904550167836,-34.6367633112771,3,TATA,BPO,Extranjero,En Operación,sep-09,2009,09,CABA,USPALLATA,2034,,,Parque Patricios,Comuna 4,1282.0,C1282AEJ
-58.40471865828079,-34.6346616191639,4,IBC ARGENTINA,SOFTWARE,Nacional,En Operación,nov-09,2009,11,CABA,CATULO CASTILLO,2930,PB 5,,Parque Patricios,Comuna 4,1261.0,C1261ACN
-58.4095875328407,-34.6356970770676,5,CZYNE,SOFTWARE,Nacional,En Operación,nov-09,2009,11,CABA,CATULO CASTILLO,3230,Piso 2 of 22,,Parque Patricios,Comuna 4,1261.0,C1261ACT
-58.409958692085105,-34.6354036876751,6,DATCO,SOFTWARE,Nacional,En Operación,Previo Ley 2972,Previo Ley 2972,Previo Ley 2972,CABA,CATULO CASTILLO,3251,,,Parque Patricios,Comuna 4,1261.0,C1261ACS
-58.406088638065995,-34.634891907605,7,AVANZIT,SOFTWARE,Nacional,En Operación,dic-10,2010,12,CABA,La Rioja,2011,,,Parque Patricios,Comuna 4,1244.0,C1244ABQ
-58.4127807879125,-34.6356669909102,8,EXO,HARDWARE,Nacional,En Operación,feb-13,2013,02,CABA,CHICLANA,3436,,,Boedo,Comuna 5,1260.0,C1260ACO
-58.4000684716131,-34.6333811856509,9,ENTORNOS EDUCATIVOS,SOFTWARE,Nacional,En Operación,Previo Ley 2972,Previo Ley 2972,Previo Ley 2972,CABA,JUJUY,1963,Piso 9 D,,Parque Patricios,Comuna 4,1247.0,C1247ABH
-58.403130812199706,-34.633454329060996,10,GRUPO GC,SOFTWARE,Nacional,En Operación,oct-09,2009,10,CABA,ESTEBAN DE LUCA,1981,,,Parque Patricios,Comuna 4,1246.0,C1246ABM
-58.40789726793489,-34.6433392568611,11,DINATECH,BPO,Nacional,En Operación,dic-14,2014,12,CABA,El Refran,3246,,,Parque Patricios,Comuna 4,1437.0,C1437IWB
-58.4117666653551,-34.634543849899,12,HIT 1,DATA CENTER,Nacional,En Operación,sep-14,2014,09,CABA,CHICLANA,3345,,,Boedo,Comuna 5,1260.0,C1260ACA
-58.3996876067464,-34.6331853026363,13,SERSAT,BPO,Nacional,En Operación,Previo Ley 2972,Previo Ley 2972,Previo Ley 2972,CABA,JUJUY,1956,,,Parque Patricios,Comuna 4,1247.0,C1247ABU
-58.413148996486996,-34.6394558722914,14,BANK,BPO,Nacional,En Operación,jun-11,2011,06,CABA,DIOGENES TABORDA,73,,,Nueva Pompeya,Comuna 4,1437.0,C1437EFA
-58.401938060780495,-34.6382282316429,15,QUANTUM TECNOLOGÍA,SOFTWARE,Nacional,En Operación,Previo Ley 2972,Previo Ley 2972,Previo Ley 2972,CABA,LAVARDEN,145,,,Parque Patricios,Comuna 4,1437.0,C1437FBC
-58.4023171825653,-34.6375530622576,16,MEGATECH,HARDWARE,Nacional,En Operación,nov-12,2012,11,CABA,PATAGONES,2827,Piso 3 y 4,,Parque Patricios,Comuna 4,1437.0,C1437JEE
-58.406088638065995,-34.634891907605,17,SENSEBYTE,SOFTWARE,Nacional,En Operación,jun-10,2010,06,CABA,LA RIOJA,2011,,,Parque Patricios,Comuna 4,1244.0,C1244ABQ
-58.4072590206336,-34.6420447227339,18,MSA,SOFTWARE,Nacional,En Operación,dic-13,2013,12,CABA,ATUEL,362,,,Parque Patricios,Comuna 4,1437.0,C1437EPD
-58.398316315523005,-34.6396330560936,19,E-NFO,SOFTWARE,Nacional,En Operación,ago-12,2012,08,CABA,LOS PATOS,2650,,,Parque Patricios,Comuna 4,1437.0,C1437JAB
-58.400266582546905,-34.632889522183596,20,CONSULTORES TRAVERSO,BPO,Nacional,En Operación,jul-12,2012,07,CABA,JUJUY,1915,Piso 5 B,,Parque Patricios,Comuna 4,1247.0,C1247ABH
-58.4031780563733,-34.6332790846517,21,NOVATIUM,SOFTWARE,Nacional,En Operación,mar-10,2010,03,CABA,ESTEBAN DE LUCA,1963,,,Parque Patricios,Comuna 4,1246.0,C1246ABM
-58.4134951316984,-34.6364250602615,22,TESAM,SOFTWARE,Nacional,En Operación,dic-14,2014,12,CABA,MAZA,2140,,,Boedo,Comuna 5,1240.0,C1240ADT
-58.40985808747929,-34.637674682439,23,YEL INFORMATICA,SOFTWARE,Nacional,En Operación,mar-10,2010,03,CABA,CASEROS,3227,Piso 5 B,,Parque Patricios,Comuna 4,1263.0,C1263AAB
-58.3981151148053,-34.634734071502,24,COMPUSISTEM,SOFTWARE,Nacional,En Operación,dic-12,2012,12,CABA,RONDEAU,2520,PB Of 04,,Parque Patricios,Comuna 4,1262.0,C1262ABF
-58.4028913197108,-34.6440888305024,25,PRONTO SISTEMA,BPO,Nacional,En Operación,sep-10,2010,09,CABA,JOSE C. PAZ,2936,,,Parque Patricios,Comuna 4,1437.0,C1437IQB
-58.4000684716131,-34.6333811856509,26,PRESMIA,SOFTWARE,Nacional,En Operación,dic-11,2011,12,CABA,JUJUY,1963,Piso 8 of C y D,,Parque Patricios,Comuna 4,1247.0,C1247ABH
-58.4000684716131,-34.6333811856509,27,NEXT NETWORKS,BPO,Nacional,En Operación,ago-11,2011,08,CABA,JUJUY,1963,Piso 5 D,,Parque Patricios,Comuna 4,1247.0,C1247ABH
-58.4095875328407,-34.6356970770676,28,DATAN,SOFTWARE,Nacional,En Operación,may-10,2010,05,CABA,CATULO CASTILLO,3230,Piso 2 of 24,,Parque Patricios,Comuna 4,1261.0,C1261ACT
-58.4058331428584,-34.6370813624958,29,CAPTTON CONSULTING,BPO,Nacional,En Operación,jun-10,2010,06,CABA,LA RIOJA,2197,Piso 1 of 3,,Parque Patricios,Comuna 4,1244.0,C1244ABS
-58.3989724532899,-34.634516497148,30,IS SECURITY,SOFTWARE,Nacional,En Operación,abr-10,2010,04,CABA,RONDEAU,2575,,,Parque Patricios,Comuna 4,1262.0,C1262ABE
-58.4095875328407,-34.6356970770676,31,IMPLEMENTAR,SOFTWARE,Nacional,En Operación,nov-10,2010,11,CABA,CATULO CASTILLO,3230,Piso 1 of 12,,Parque Patricios,Comuna 4,1261.0,C1261ACT
-58.400266582546905,-34.632889522183596,32,DATASTAR,BPO,Nacional,En Operación,oct-12,2012,10,CABA,JUJUY,1915,Piso 5 C,,Parque Patricios,Comuna 4,1247.0,C1247ABH
-58.39908093023789,-34.636169275602,33,TIGABYTES,SOFTWARE,Nacional,En Obra,abr-16,2016,04,CABA,Av. CASEROS,2602,Piso 5,,Parque Patricios,Comuna 4,1264.0,C1264AAT
-58.4088038005096,-34.641104401807496,34,FARMARECORD,SOFTWARE,Nacional,En Operación,nov-12,2012,11,CABA,PEPIRÍ,254,,,Parque Patricios,Comuna 4,1437.0,C1437EIF
-58.4058594469707,-34.642441211760605,35,STARWARE,SOFTWARE,Nacional,En Operación,jun-12,2012,06,CABA,DR. PEDRO CHUTRO,3090,,,Parque Patricios,Comuna 4,1437.0,C1437IYJ
-58.4023171825653,-34.6375530622576,36,DATA FACTORY,SOFTWARE,Nacional,En Operación,sep-13,2013,09,CABA,PATAGONES,2827,Piso 1,,Parque Patricios,Comuna 4,1437.0,C1437JEE
-58.4088428169893,-34.642848368167,37,COS ARGENTINA,SOFTWARE,Nacional,En Operación,nov-14,2014,11,CABA,DR. PEDRO CHUTRO,3302,,,Parque Patricios,Comuna 4,1437.0,C1437IYP
-58.4069790515279,-34.641201145147804,38,TELEFONICA G. DE SS COMPARTIDOS,BPO,Extranjero,En Operación,nov-11,2011,11,CABA,LOS PATOS,3151,,,Parque Patricios,Comuna 4,1437.0,C1437JAK
-58.4051257361403,-34.640867324198,39,G&L GROUP,SOFTWARE,Nacional,En Operación,ago-13,2013,08,CABA,MONTEAGUDO,275,,,Parque Patricios,Comuna 4,1437.0,C1437EVE
-58.404749176586996,-34.6346681104982,40,MTD SOFTWARE SRL,SOFTWARE,Nacional,En Operación,jun-12,2012,06,CABA,CATULO CASTILLO,2932,Piso 4 of 24,,Parque Patricios,Comuna 4,1261.0,C1261ACN
-58.4018673902388,-34.633079796227996,41,OPEN COMPUTACIÓN,SOFTWARE,Nacional,En Operación,oct-11,2011,10,CABA,CATAMARCA,1985,,,Parque Patricios,Comuna 4,1246.0,C1246AAO
-58.40433460930039,-34.6379504595425,42,HORWATH CAPITAL INTELECTUAL,BPO,Nacional,En Operación,mar-16,2016,03,CABA,Patagones,2937,PLANTA BAJA,,Parque Patricios,Comuna 4,1437.0,C1437JEG
-58.3964558584797,-34.6393182542096,43,GENERAL PLASTIC CORP,BPO,Nacional,En Operación,Previo Ley 2972,Previo Ley 2972,Previo Ley 2972,CABA,LOS PATOS,2526,,,Parque Patricios,Comuna 4,1283.0,C1283ACD
-58.413642868667296,-34.6409367831068,44,VIDEOSWITCH,HARDWARE,Nacional,En Operación,mar-13,2013,03,CABA,USPALLATA,3579,,,Nueva Pompeya,Comuna 4,1437.0,C1437JCS
-58.4025813035487,-34.6355313415844,45,GEOSYSTEMS,SOFTWARE,Nacional,En Operación,may-13,2013,05,CABA,ESTEBAN DE LUCA,2223,,,Parque Patricios,Comuna 4,1246.0,C1246ABS
-58.4034122367747,-34.6394859832697,46,REPORTE INFORMATIVO,SOFTWARE,Nacional,En Operación,ago-11,2011,08,CABA,ZAVALETA,219,,,Parque Patricios,Comuna 4,1437.0,C1437EYE
-58.39606040025821,-34.638695810139396,47,DELFAU,SOFTWARE,Nacional,En Operación,ago-11,2011,08,CABA,MANUEL GARCIA,276,,,Parque Patricios,Comuna 4,1284.0,C1284ACF
-58.40985808747929,-34.637674682439,48,BUFFA SISTEMAS,SOFTWARE,Nacional,En Operación,mar-11,2011,03,CABA,CASEROS,3227,Piso 7 A,,Parque Patricios,Comuna 4,1263.0,C1263AAB
-58.39689650981529,-34.6403764028946,49,FULLTRACE,SOFTWARE,Nacional,En Operación,mar-13,2013,03,CABA,AV. COLONIA,370,,,Parque Patricios,Comuna 4,1437.0,C1437JNH
-58.4037230329535,-34.6408742701714,50,IPLAN,DATA CENTER,Nacional,En Operación,ene-12,2012,01,CABA,LOS PATOS,2948,,,Parque Patricios,Comuna 4,1437.0,C1437JAH
-58.403063065755994,-34.6372561532639,51,GOODWELL SOFTWARE ARGENTINA,SOFTWARE,Nacional,En Operación,ago-11,2011,08,OTRA,ARRIOLA,49,,,Parque Patricios,Comuna 4,1437.0,C1437FAA
-58.4061146281744,-34.641023345278,52,SYNCHRO TECNH,SOFTWARE,Nacional,En Operación,ene-13,2013,01,CABA,IGUAZÚ,280,,,Parque Patricios,Comuna 4,1437.0,C1437ETB
-58.4086840588365,-34.6444232083404,53,TEKII,SOFTWARE,Nacional,En Operación,ago-11,2011,08,CABA,ELIA,551,,,Parque Patricios,Comuna 4,1437.0,C1437ELC
-58.4004478738229,-34.6324395538992,54,NOVASYS,SOFTWARE,Nacional,En Operación,nov-11,2011,11,CABA,JUJUY,1875,Piso 7,,Parque Patricios,Comuna 4,1247.0,C1247ABG
-58.404177667583504,-34.6338890188094,55,GRUPO NET,SOFTWARE,Nacional,En Operación,jun-12,2012,06,CABA,DEAN FUNES,1964,,,Parque Patricios,Comuna 4,1244.0,C1244AAP
-58.39960787769,-34.6345241426687,56,CIRCO STUDIO,SOFTWARE,Nacional,En Operación,may-11,2011,05,CABA,JUJUY,2073,Piso 1,,Parque Patricios,Comuna 4,1247.0,C1247ABI
-58.411980723403104,-34.6376586807832,57,SISTEMAS PARA BANCOS,SOFTWARE,Nacional,En Operación,nov-11,2011,11,CABA,VIRREY LINIERS,2351,2do E,,Boedo,Comuna 5,1241.0,C1241ABW
-58.413410916639,-34.6382831663271,58,TESIS OYS,SOFTWARE,Nacional,En Operación,jun-11,2011,06,CABA,CASEROS,3411,Piso 7,,Boedo,Comuna 5,1263.0,C1263AAD
-58.4004478738229,-34.6324395538992,59,ABACO,BPO,Nacional,En Operación,dic-11,2011,12,CABA,JUJUY,1875,Piso 6 B,,Parque Patricios,Comuna 4,1247.0,C1247ABG
-58.4000684716131,-34.6333811856509,60,VR4,SOFTWARE,Nacional,En Operación,mar-12,2012,03,CABA,JUJUY,1963,Piso 2 B,,Parque Patricios,Comuna 4,1247.0,C1247ABH
-58.405070214131406,-34.6388972444654,61,E-BUY PLACE,SOFTWARE,Nacional,En Operación,ene-12,2012,01,CABA,MONTEAGUDO,146,,,Parque Patricios,Comuna 4,1437.0,C1437EVD
-58.3981151148053,-34.634734071502,62,PEDIATRIC CARE,SOFTWARE,Nacional,En Operación,sep-14,2014,09,CABA,RONDEAU,2520,,,Parque Patricios,Comuna 4,1262.0,C1262ABF
-58.4031150193987,-34.636859831071604,63,MOVIL CARGA,BPO,Nacional,En Operación,jun-14,2014,06,CABA,CASEROS,2862,,,Parque Patricios,Comuna 4,1264.0,C1264AAV
-58.407971780442296,-34.6366037353368,64,IADEV,BPO,Nacional,En Operación,Previo Ley 2972,Previo Ley 2972,Previo Ley 2972,CABA,RONDEAU,3124,,,Parque Patricios,Comuna 4,1262.0,C1262ABR
-58.4127721449403,-34.6381710147028,65,LAKAUT,BPO,Nacional,En Operación,mar-14,2014,03,CABA,CASEROS,3371,,,Boedo,Comuna 5,1263.0,C1263AAC
-58.4002623747511,-34.6351124638365,66,PAY-U LATAM,e-COMMERCE,Extranjero,En Operación,abr-14,2014,04,CABA,RONDEAU,2664,Piso 2,,Parque Patricios,Comuna 4,1262.0,C1262ABH
-58.41333257543611,-34.638269414766505,67,TEKNARIA,BPO,Nacional,En Operación,feb-14,2014,02,CABA,CASEROS,3405,Piso 1,,Boedo,Comuna 5,1263.0,C1263AAD
-58.4047785583949,-34.6403852327382,68,EXISOFT,SOFTWARE,Nacional,En Operación,dic-12,2012,12,CABA,MONTEAGUDO,252,,,Parque Patricios,Comuna 4,1437.0,C1437EVF
-58.39667877542811,-34.631902527913496,69,ASSERT SOLUTIONS,SOFTWARE,Nacional,En Operación,jun-12,2012,06,CABA,CATULO CASTILLO,2360,Piso 3,,Parque Patricios,Comuna 4,1261.0,C1261ACB
-58.397930439453106,-34.636701761217296,70,DPS SISTEMAS,SOFTWARE,Nacional,En Operación,ene-14,2014,01,CABA,PATAGONES,2559,PB of 2,,Parque Patricios,Comuna 4,1282.0,C1282ACC
-58.4000684716131,-34.6333811856509,71,DIGITAL FILE,BPO,Nacional,En Operación,nov-11,2011,11,CABA,JUJUY,1963,Piso 8 of B,,Parque Patricios,Comuna 4,1247.0,C1247ABH
-58.40887165828871,-34.641491996402195,72,SGB INFORMATION SERVICES,BPO,Nacional,En Operación,feb-14,2014,02,CABA,PEPIRI,286,,,Parque Patricios,Comuna 4,1437.0,C1437EIF
-58.4002623747511,-34.6351124638365,73,BUMERAN,e-COMMERCE,Nacional,En Operación,jun-14,2014,06,CABA,RONDEAU,2664,Piso 4,,Parque Patricios,Comuna 4,1262.0,C1262ABH
-58.4002623747511,-34.6351124638365,74,UNIVERSOBIT,SOFTWARE,Nacional,En Operación,may-14,2014,05,CABA,RONDEAU,2664,Piso 3,,Parque Patricios,Comuna 4,1262.0,C1262ABH
-58.4004782319367,-34.6329730719431,75,SITEPRO,SOFTWARE,Nacional,En Operación,abr-12,2012,04,CABA,CATULO CASTILLO,2630,Piso 2 A,,Parque Patricios,Comuna 4,1261.0,C1261ACH
-58.400908988083295,-34.637633358287204,76,SERDATA,SOFTWARE,Nacional,En Operación,abr-14,2014,04,CABA,PATAGONES,2750,,,Parque Patricios,Comuna 4,1437.0,C1437JED
-58.4004782319367,-34.6329730719431,77,INFOGESTION BRANCHT,BPO,Nacional,En Operación,jun-12,2012,06,CABA,CATULO CASTILLO,2630,Piso 1,,Parque Patricios,Comuna 4,1261.0,C1261ACH
-58.406088638065995,-34.634891907605,78,NET SERVICES,SOFTWARE,Nacional,En Operación,jun-12,2012,06,CABA,LA RIOJA,2011,PB,,Parque Patricios,Comuna 4,1244.0,C1244ABQ
-58.399569422489606,-34.6370092120697,79,STAFFING IT,SOFTWARE,Nacional,En Operación,jun-14,2014,06,CABA,PATAGONES,2665,piso 1,,Parque Patricios,Comuna 4,1437.0,C1437JEA
-58.4006229599957,-34.6364545016719,80,m2-MARKETINMETRICS,BPO,Nacional,En Operación,abr-14,2014,04,CABA,LUNA,17,Piso 5,,Parque Patricios,Comuna 4,1437.0,C1437FEC
-58.412981785002096,-34.6385764478164,81,ADP CONSULTORES,BPO,Extranjero,En Operación,oct-13,2013,10,CABA,CASEROS,3392,,,Nueva Pompeya,Comuna 4,1263.0,C1263AAP
-58.4004782319367,-34.6329730719431,82,TELINFOR,BPO,Nacional,En Operación,dic-13,2013,12,CABA,CATULO CASTILLO,2630,Piso 2 B,,Parque Patricios,Comuna 4,1261.0,C1261ACH
-58.4000684716131,-34.6333811856509,83,QUASS SRL,SOFTWARE,Nacional,En Operación,may-14,2014,05,CABA,Jujuy,1963,Piso 6 B,,Parque Patricios,Comuna 4,1247.0,C1247ABH
-58.4000684716131,-34.6333811856509,84,B2CLOUD,BPO,Nacional,En Operación,sep-14,2014,09,CABA,Jujuy,1963,Piso 3 B,,Parque Patricios,Comuna 4,1247.0,C1247ABH
-58.4004782319367,-34.6329730719431,85,TR ARGENTINA,BPO,Nacional,En Operación,dic-12,2012,12,OTRA,CATULO CASTILLO,2630,Piso 3 A,,Parque Patricios,Comuna 4,1261.0,C1261ACH
-58.4129098558213,-34.648109404976694,86,POWER CONSULTANT,BPO,Nacional,En Operación,Previo Ley 2972,Previo Ley 2972,Previo Ley 2972,CABA,GRITO DE ASENCIO,3650,,,Nueva Pompeya,Comuna 4,1437.0,C1437IML
-58.41333257543611,-34.638269414766505,87,CONSULTORA NÚCLEO,BPO,Nacional,En Operación,nov-12,2012,11,CABA,CASEROS,3405,Piso 5,,Boedo,Comuna 5,1263.0,C1263AAD
-58.40985808747929,-34.637674682439,88,PAGUSTECH,SOFTWARE,Nacional,En Operación,jun-12,2012,06,CABA,CASEROS,3227,Piso 6 C,,Parque Patricios,Comuna 4,1263.0,C1263AAB
-58.4000684716131,-34.6333811856509,89,GRUPO TBT,SOFTWARE,Nacional,En Operación,jun-12,2012,06,CABA,JUJUY,1963,Piso 3 B,,Parque Patricios,Comuna 4,1247.0,C1247ABH
-58.4000684716131,-34.6333811856509,90,DARUMA,SOFTWARE,Nacional,En Operación,jun-12,2012,06,CABA,JUJUY,1963,Piso 6 B,,Parque Patricios,Comuna 4,1247.0,C1247ABH
-58.4023171825653,-34.6375530622576,91,COVEDISA,BPO,Nacional,En Operación,nov-14,2014,11,CABA,patagones,2827,,,Parque Patricios,Comuna 4,1437.0,C1437JEE
-58.39908093023789,-34.636169275602,92,SILK TECH,BPO,Nacional,En Operación,ago-15,2015,08,CABA,Av. Caseros,2602,Piso 8,,Parque Patricios,Comuna 4,1264.0,C1264AAT
-58.4065795657226,-34.6421741088592,93,DAEVA,SOFTWARE,Nacional,En Operación,dic-16,2016,12,CABA,Pedro Chutro,3135,of 101/102,,Parque Patricios,Comuna 4,1437.0,C1437IYK
-58.407435163478006,-34.643386782992394,94,NEC,HARDWARE,Nacional,En Operación,ago-12,2012,08,CABA,ATUEL,471,,,Parque Patricios,Comuna 4,1437.0,C1437EPE
-58.4002623747511,-34.6351124638365,95,TI SISTEMAS,BPO,Nacional,En Operación,abr-14,2014,04,CABA,RONDEAU,2664,Piso 5 A,,Parque Patricios,Comuna 4,1262.0,C1262ABH
-58.4065795657226,-34.6421741088592,96,SIF AMERICA,SOFTWARE,Nacional,En Operación,abr-14,2014,04,CABA,DR. PEDRO CHUTRO,3135,,,Parque Patricios,Comuna 4,1437.0,C1437IYK
-58.41333257543611,-34.638269414766505,97,GLD CONSULTORES,SOFTWARE,Nacional,En Operación,nov-13,2013,11,CABA,CASEROS,3405,Piso 3,,Boedo,Comuna 5,1263.0,C1263AAD
-58.4023171825653,-34.6375530622576,98,MOVILGATE,SOFTWARE,Nacional,En Operación,ene-13,2013,01,CABA,PATAGONES,2827,Piso 5,,Parque Patricios,Comuna 4,1437.0,C1437JEE
-58.4117666653551,-34.634543849899,99,TELEFONICA GLOBAL TECHNOLOGY,BPO,Extranjero,En Operación,sep-14,2014,09,CABA,CHICLANA,3345,,,Boedo,Comuna 5,1260.0,C1260ACA
-58.400969957113396,-34.6448121085954,100,AIV (Central de pasajes),e-COMMERCE,Nacional,En Operación,ene-15,2015,01,CABA,AMANCIO ALCORTA,2801,,,Parque Patricios,Comuna 4,1437.0,C1437HTD
-58.39908093023789,-34.636169275602,101,DAXA,SOFTWARE,Extranjero,En Operación,ago-15,2015,08,CABA,Av. Caseros,2602,Piso 8,,Parque Patricios,Comuna 4,1264.0,C1264AAT
-58.4117666653551,-34.634543849899,102,BIBLOS,BPO,Nacional,En Operación,sep-14,2014,09,CABA,CHICLANA,3345,Piso 6,,Boedo,Comuna 5,1260.0,C1260ACA
-58.4117666653551,-34.634543849899,103,AVANTRIP,BPO,Nacional,En Operación,sep-14,2014,09,CABA,CHICLANA,3345,Piso 7,,Boedo,Comuna 5,1260.0,C1260ACA
-58.4004478738229,-34.6324395538992,104,OVERNET,SOFTWARE,Nacional,En Operación,sep-14,2014,09,CABA,JUJUY,1875,Piso 2,,Parque Patricios,Comuna 4,1247.0,C1247ABG
-58.39702775633779,-34.6361198098969,105,ADMINISTRADORA DE MONEDEROS ELECTRONICOS (AME),BPO,Nacional,En Operación,ene-13,2013,01,CABA,MANUEL GARCIA,50,Piso 2,,Parque Patricios,Comuna 4,1284.0,C1284ACB
-58.409462217940906,-34.6356601545354,106,SOLUCIONES WORKOUT,SOFTWARE,Nacional,En Operación,mar-15,2015,03,CABA,24 DE NOVIEMBRE,2115,,,Parque Patricios,Comuna 4,1242.0,C1242AAS
-58.4135076496842,-34.6425394533907,107,SOF TUR,SOFTWARE,Nacional,En Operación,mar-13,2013,03,CABA,ACHALA,3527,,,Nueva Pompeya,Comuna 4,1437.0,C1437IZA
-58.4133839772193,-34.6417897813345,108,CORPORATE CORP,HARDWARE,Nacional,En Operación,feb-15,2015,02,CABA,PUNA,3540,,,Nueva Pompeya,Comuna 4,1437.0,C1437JBB
-58.409958692085105,-34.6354036876751,109,BAITCON,BPO,Nacional,En Operación,dic-14,2014,12,CABA,CATULO CASTILLO,3251,,,Parque Patricios,Comuna 4,1261.0,C1261ACS
-58.4098261328106,-34.6357478162909,110,INTERSERVICES CONSULTING,BPO,Nacional,En Operación,dic-14,2014,12,CABA,CATULO CASTILLO,3250,Of B,,Parque Patricios,Comuna 4,1261.0,C1261ACT
-58.41333257543611,-34.638269414766505,111,RENXO,SOFTWARE,Nacional,En Operación,sep-13,2013,09,CABA,CASEROS,3405,Piso 4,,Boedo,Comuna 5,1263.0,C1263AAD
-58.4000684716131,-34.6333811856509,112,AKAROMSOFT,SOFTWARE,Nacional,En Operación,feb-12,2012,02,CABA,AV. JUJUY,1963,Piso 9 C,,Parque Patricios,Comuna 4,1247.0,C1247ABH
-58.4117666653551,-34.634543849899,113,TMF ARGENTINA,BPO,Extranjero,En Operación,sep-14,2014,09,CABA,CHICLANA,3345,Piso 4 y 5,,Boedo,Comuna 5,1260.0,C1260ACA
-58.4133901421286,-34.645846524446505,114,VALID,BPO,Extranjero,En Operación,Previo Ley 2972,Previo Ley 2972,Previo Ley 2972,CABA,JOSE C. PAZ,3640,PB,,Nueva Pompeya,Comuna 4,1437.0,C1437IQP
-58.4071706473941,-34.6447215620669,115,SMARTWAY,SOFTWARE,Nacional,En Operación,abr-13,2013,04,CABA,ATUEL,607,,,Parque Patricios,Comuna 4,1437.0,C1437EPI
-58.4065795657226,-34.6421741088592,116,SONDEOS,SOFTWARE,Nacional,En Operación,ago-14,2014,08,CABA,DR. PEDRO CHUTRO,3135,Piso 2,,Parque Patricios,Comuna 4,1437.0,C1437IYK
-58.415378361865606,-34.6452694591378,117,SYSTEMSCORP,BPO,Nacional,En Operación,ene-14,2014,01,CABA,DEL TIGRE,3867,,,Nueva Pompeya,Comuna 4,1437.0,C1437IRA
-58.4002623747511,-34.6351124638365,118,BDO,BPO,Nacional,En Operación,mar-14,2014,03,CABA,RONDEAU,2664,Piso PB y 1,,Parque Patricios,Comuna 4,1262.0,C1262ABH
-58.40725539144629,-34.6435791535651,119,AGEN,HARDWARE,Nacional,En Operación,feb-13,2013,02,CABA,"CORTEJARENA, JOSE A.",3205,,,Parque Patricios,Comuna 4,1437.0,C1437ISM
-58.4037119918702,-34.6360975042755,120,BPD SOLUTIONS,SOFTWARE,Nacional,En Operación,jul-13,2013,07,CABA,DEAN FUNES,2148,,,Parque Patricios,Comuna 4,1244.0,C1244AAT
-58.40117927554339,-34.637684642477005,121,CATALINAS CENTER,BPO,Nacional,En Operación,ago-15,2015,08,CABA,PATAGONES,2766,,,Parque Patricios,Comuna 4,1437.0,C1437JED
-58.4142687068204,-34.636537945921305,122,ACTIVIA,BPO,Nacional,En Operación,ago-15,2015,08,CABA,CHICLANA,3580,,,Boedo,Comuna 5,1260.0,C1260ACP
-58.4007181576641,-34.632667685956505,124,SOLUCIONES INFORMATICAS INTEGRALES,SOFTWARE,Nacional,En Operación,dic-14,2014,12,CABA,CATULO CASTILLO,2633,,,Parque Patricios,Comuna 4,1261.0,C1261ACG
-58.40433460930039,-34.6379504595425,125,ITALTEL,SOFTWARE,Nacional,En Operación,sep-14,2014,09,CABA,PATAGONES,2937,,,Parque Patricios,Comuna 4,1437.0,C1437JEG
-58.3979509332463,-34.6377448819972,126,CLAWI,SOFTWARE,Nacional,En Operación,sep-13,2013,09,CABA,COLONIA,170,,,Parque Patricios,Comuna 4,1437.0,C1437JND
-58.4065795657226,-34.6421741088592,127,DEDALORD,SOFTWARE,Nacional,En Operación,sep-14,2014,09,CABA,PEDRO CHUTRO,3135,of 101,,Parque Patricios,Comuna 4,1437.0,C1437IYK
-58.4002623747511,-34.6351124638365,128,GECSA,SOFTWARE,Nacional,En Operación,jul-14,2014,07,CABA,RONDEAU,2664,"Piso 5 B, 1º",,Parque Patricios,Comuna 4,1262.0,C1262ABH
-58.4002623747511,-34.6351124638365,129,CANAL VIRTUAL,SOFTWARE,Nacional,En Operación,jul-14,2014,07,CABA,RONDEAU,2664,"Pisao 5 B, 2",,Parque Patricios,Comuna 4,1262.0,C1262ABH
-58.4002623747511,-34.6351124638365,130,MICROSHENZHEN,SOFTWARE,Nacional,En Operación,jul-14,2014,07,CABA,RONDEAU,2664,piso 5,,Parque Patricios,Comuna 4,1262.0,C1262ABH
-58.40119614137011,-34.641456259700604,131,ITBA,EDUCACION,Nacional,En Operación,sep-15,2015,09,CABA,LAVARDEN,389,,,Parque Patricios,Comuna 4,1437.0,C1437FBG
-58.41333257543611,-34.638269414766505,132,DUX DILIGENS/TMN,SOFTWARE,Nacional,En Operación,ene-15,2015,01,CABA,CASEROS,3405,Piso 6,,Boedo,Comuna 5,1263.0,C1263AAD
-58.41333257543611,-34.638269414766505,133,E-GATE,SOFTWARE,Nacional,En Operación,nov-13,2013,11,CABA,CASEROS,3405,Piso 1 B,,Boedo,Comuna 5,1263.0,C1263AAD
-58.3990083857238,-34.6362525269555,134,THINK IT,SOFTWARE,Nacional,En Operación,nov-15,2015,11,CABA,colonia,25,Piso 3 A,,Parque Patricios,Comuna 4,1437.0,C1437JNA
-58.3990083857238,-34.6362525269555,135,PARADIGMA CONSULTORES,BPO,Nacional,En Operación,nov-15,2015,11,CABA,colonia,25,Piso 2 A,,Parque Patricios,Comuna 4,1437.0,C1437JNA
-58.41333257543611,-34.638269414766505,136,NETNIX,BPO,Nacional,En Operación,feb-14,2014,02,CABA,CASEROS,3405,Piso 7,,Boedo,Comuna 5,1263.0,C1263AAD
-58.401905435346,-34.6383696995542,137,VIAJO BIEN,BPO,Nacional,En Operación,mar-15,2015,03,CABA,LAVARDEN,157,Piso 2 y 3,,Parque Patricios,Comuna 4,1437.0,C1437FBC
-58.4117174152036,-34.6379883942856,138,ASATEJ,BPO,Extranjero,En Operación,mar-16,2016,03,CABA,AV CASEROS,3301,"Piso 5,6,7,8.",,Boedo,Comuna 5,1263.0,C1263AAC
-58.4117174152036,-34.6379883942856,139,BEST DAY,e-COMMERCE,Extranjero,En Operación,mar-16,2016,03,CABA,AV CASEROS,3301,Piso 3,,Boedo,Comuna 5,1263.0,C1263AAC
-58.4023171825653,-34.6375530622576,140,VULSAI-MANGO,SOFTWARE,Nacional,En Operación,mar-14,2014,03,CABA,PATAGONES,2827,Piso 3,,Parque Patricios,Comuna 4,1437.0,C1437JEE
-58.396616748849205,-34.6384307667388,141,OPTICOM,SOFTWARE,Nacional,En Operación,dic-14,2014,12,CABA,MANUEL GARCIA,233,,,Parque Patricios,Comuna 4,1284.0,C1284ACE
-58.4031150193987,-34.636859831071604,142,QUALITY WORK,SOFTWARE,Nacional,En Operación,abr-14,2014,04,CABA,Av. Caseros,2862,Piso 3 A,,Parque Patricios,Comuna 4,1264.0,C1264AAV
-58.39908093023789,-34.636169275602,143,SMS,BPO,Nacional,En Operación,abr-16,2016,04,CABA,Av. Caseros,2602,Piso 1,,Parque Patricios,Comuna 4,1264.0,C1264AAT
-58.3990083857238,-34.6362525269555,144,CRYSTALIS/SEIDOR,BPO,Extranjero,En Operación,abr-16,2016,04,CABA,colonia,25,"Piso 4,5",,Parque Patricios,Comuna 4,1437.0,C1437JNA
-58.4006229599957,-34.6364545016719,145,LABOR CORPORATIVA,BPO,Nacional,En Operación,jul-14,2014,07,CABA,LUNA,17,"Piso 3,4,5",,Parque Patricios,Comuna 4,1437.0,C1437FEC
-58.4075362788425,-34.6482666952796,146,AIR COMPUTERS,HARDWARE,Nacional,En Operación,ago-17,2017,08,CABA,ANCASTE,3258,,,Nueva Pompeya,Comuna 4,1437.0,C1437ILF
-58.4051764377406,-34.634758982969196,147,VALIJA CHICA,SOFTWARE,Nacional,En Operación,oct-14,2014,10,CABA,CATULO CASTILLO,2960,pb,,Parque Patricios,Comuna 4,1261.0,C1261ACN
-58.4004478738229,-34.6324395538992,148,DELTA 3,SOFTWARE,Nacional,En Operación,may-14,2014,05,CABA,JUJUY,1875,Piso 5 depto A,,Parque Patricios,Comuna 4,1247.0,C1247ABG
-58.4154068970064,-34.6386335051554,149,NEURAL SOFT,SOFTWARE,Nacional,En Operación,dic-15,2015,12,OTRA,AV. CASEROS,3563,Piso 9,,Boedo,Comuna 5,1263.0,C1263AAE
-58.39985724182299,-34.6346724091729,150,WORLDSYS,SOFTWARE,Nacional,En Operación,may-14,2014,05,CABA,RONDEAU,2631,,,Parque Patricios,Comuna 4,1262.0,C1262ABG
-58.4006229599957,-34.6364545016719,151,RECURSOS  EN DESARROLLO,SOFTWARE,Nacional,En Operación,ago-14,2014,08,CABA,LUNA,17,,,Parque Patricios,Comuna 4,1437.0,C1437FEC
-58.4041472508103,-34.6370411350002,152,PROVINCANJE,SOFTWARE,Nacional,En Operación,ago-14,2014,08,CABA,Av. Caseros,2920,PB,,Parque Patricios,Comuna 4,1264.0,C1264AAW
-58.40789726793489,-34.6433392568611,153,D-TECH,SOFTWARE,Nacional,En Obra,dic-16,2016,12,CABA,EL REFRAN,3246,,,Parque Patricios,Comuna 4,1437.0,C1437IWB
-58.397596092067005,-34.6366396201981,154,BITOPIA,SOFTWARE,Nacional,En Operación,ene-14,2014,01,CABA,Patagones,2535,PB,,Parque Patricios,Comuna 4,1282.0,C1282ACC
-58.4031150193987,-34.636859831071604,155,FUSAP,SOFTWARE,Nacional,En Operación,may-15,2015,05,CABA,Av.Caseros,2862,Piso 2 A,,Parque Patricios,Comuna 4,1264.0,C1264AAV
-58.4006229599957,-34.6364545016719,156,SOFTOFICE,SOFTWARE,Nacional,En Operación,ene-14,2014,01,CABA,Luna,17,Piso 6,,Parque Patricios,Comuna 4,1437.0,C1437FEC
-58.4154068970064,-34.6386335051554,157,TTS,BPO,Nacional,En Operación,jul-15,2015,07,CABA,Av. Caseros,3563,Piso 3,,Boedo,Comuna 5,1263.0,C1263AAE
-58.3990083857238,-34.6362525269555,158,SOFTING,SOFTWARE,Nacional,En Operación,ago-15,2015,08,CABA,Av. COLONIA,25,6 B,,Parque Patricios,Comuna 4,1437.0,C1437JNA
-58.39908093023789,-34.636169275602,159,IMR,SOFTWARE,Nacional,En Operación,nov-15,2015,11,CABA,Av. Caseros,2602,Piso 6,,Parque Patricios,Comuna 4,1264.0,C1264AAT
-58.4117174152036,-34.6379883942856,160,CONSENSUS,SOFTWARE,Nacional,En Operación,dic-15,2015,12,CABA,Av. Caseros,3301,Piso 2,,Boedo,Comuna 5,1263.0,C1263AAC
-58.406088638065995,-34.634891907605,161,DOCUMENTOS ADUANEROS,SOFTWARE,Nacional,En Operación,ago-15,2015,08,CABA,La Rioja,2011,,,Parque Patricios,Comuna 4,1244.0,C1244ABQ
-58.397988997976,-34.641458780989,162,CRONON,SOFTWARE,Nacional,En Operación,ene-15,2015,01,CABA,Luna,424,,,Parque Patricios,Comuna 4,1437.0,C1437FEL
-58.4154068970064,-34.6386335051554,163,INTERCONNECT,SOFTWARE,Nacional,En Operación,dic-15,2015,12,CABA,Av. Caseros,3563,Piso 8 of 16,,Boedo,Comuna 5,1263.0,C1263AAE
-58.4025373194546,-34.635708814756796,164,PMO TECNOLOGY,SOFTWARE,Nacional,En Operación,sep-12,2012,09,CABA,Esteban de Luca,2237,Piso 3 of J,,Parque Patricios,Comuna 4,1246.0,C1246ABS
-58.401905435346,-34.6383696995542,165,STEFANINI,BPO,Extranjero,En Operación,feb-15,2015,02,CABA,Lavarden,157,Piso 2 of 2,,Parque Patricios,Comuna 4,1437.0,C1437FBC
-58.403118962401294,-34.6370103252643,166,ELECTROPAGOS,SOFTWARE,Nacional,En Operación,dic-14,2014,12,CABA,Arriola,27,,,Parque Patricios,Comuna 4,1437.0,C1437FAA
-58.40887165828871,-34.641491996402195,167,REVIRTUAL,SOFTWARE,Nacional,En Operación,dic-14,2014,12,CABA,Pepiri,286,Piso 1,,Parque Patricios,Comuna 4,1437.0,C1437EIF
-58.40433460930039,-34.6379504595425,168,"CANEPA, KOPEC Y ASOC.",BPO,Nacional,En Operación,mar-16,2016,03,CABA,Patagones,2937,,,Parque Patricios,Comuna 4,1437.0,C1437JEG
-58.40433460930039,-34.6379504595425,169,HORWATH CONSULTING,BPO,Nacional,En Operación,mar-16,2016,03,CABA,Patagones,2937,,,Parque Patricios,Comuna 4,1437.0,C1437JEG
-58.401567277651,-34.639053321049104,170,PRISMA MEDIOS DE PAGO SA,SOFTWARE,Nacional,En Obra,jun-17,2017,06,CABA,Uspallata,2802,,,Parque Patricios,Comuna 4,1437.0,C1437JCF
-58.40433460930039,-34.6379504595425,171,KOMPENDIUM,BPO,Nacional,En Operación,mar-16,2016,03,CABA,Patagones,2937,,,Parque Patricios,Comuna 4,1437.0,C1437JEG
-58.40433460930039,-34.6379504595425,172,HMSI,BPO,Nacional,En Operación,mar-16,2016,03,CABA,Patagones,2937,,,Parque Patricios,Comuna 4,1437.0,C1437JEG
-58.4117174152036,-34.6379883942856,173,IATASA,INGENIERIA,Nacional,En Operación,dic-15,2015,12,CABA,Av. Caseros,3301,Piso 2 B y 4 B,,Boedo,Comuna 5,1263.0,C1263AAC
-58.3987209873735,-34.6316864985585,174,EBOX S.A.,SOFTWARE,Nacional,En Operación,jun-15,2015,06,CABA,Alberti,1856,,,Parque Patricios,Comuna 4,1247.0,C1247AAN
-58.4158093538621,-34.6390727569064,175,IT PATAGONIA,SOFTWARE,Nacional,En Obra,ago-17,2017,08,CABA,Av Caseros,3602,Piso 6,,Nueva Pompeya,Comuna 4,1263.0,C1263AAS
-58.4115869547288,-34.636875676624896,176,TALLION,SOFTWARE,Nacional,En Operación,sep-15,2015,09,CABA,Rondeau,3367,,,Boedo,Comuna 5,1262.0,C1262ABU
-58.4154068970064,-34.6386335051554,177,DELLOITE,BPO,Nacional,En Operación,nov-15,2015,11,CABA,Av. Caseros,3563,Piso 4 y 5,,Boedo,Comuna 5,1263.0,C1263AAE
-58.406422258508904,-34.6370789035,178,CARDINAL,SOFTWARE,Nacional,En Operación,sep-17,2017,09,CABA,Av. Caseros,3039,Piso 8,,Parque Patricios,Comuna 4,1264.0,C1264AAK
-58.4033012407625,-34.6355553534599,179,DIGITAL WEST soluciones Tecnologicas SRL,SOFTWARE,Nacional,En Obra,mar-17,2017,03,CABA,Rondeau,2858,,,Parque Patricios,Comuna 4,1262.0,C1262ABL
-58.39908093023789,-34.636169275602,180,TRANS,SOFTWARE,Nacional,En Operación,dic-15,2015,12,CABA,Av. Caseros,2602,Piso 10,,Parque Patricios,Comuna 4,1264.0,C1264AAT
-58.4085328666199,-34.6363497236608,181,SISTEMAS OPERATIVOS,BPO,Nacional,En Operación,dic-15,2015,12,CABA,Rondeau,3155,,,Parque Patricios,Comuna 4,1262.0,C1262ABQ
-58.4023171825653,-34.6375530622576,182,CDSS SA,SOFTWARE,Nacional,En Operación,nov-17,2017,11,CABA,PATAGONES,2827,Piso 3,,Parque Patricios,Comuna 4,1437.0,C1437JEE
-58.39908093023789,-34.636169275602,183,TDI,SOFTWARE,Nacional,En Operación,ene-16,2016,01,CABA,Av. Caseros,2602,Piso 3,,Parque Patricios,Comuna 4,1264.0,C1264AAT
-58.3988745090359,-34.6353440819828,184,IDEA BIZ (OPEN IT),SOFTWARE,Nacional,En Obra,sep-15,2015,09,CABA,Av. Jujuy,2156,Piso 3 A /PB 1,,Parque Patricios,Comuna 4,1247.0,C1247ABW
-58.4000684716131,-34.6333811856509,185,PATRICIOS PARK BUSINESS SOLUTIONS,BPO,Nacional,En Operación,sep-14,2014,09,CABA,Av. Jujuy,1963,Piso 4 A,,Parque Patricios,Comuna 4,1247.0,C1247ABH
-58.4000684716131,-34.6333811856509,186,BAIRESNET,SOFTWARE,Nacional,En Operación,jun-13,2013,06,CABA,Av. Jujuy,1963,Piso 5 B,,Parque Patricios,Comuna 4,1247.0,C1247ABH
-58.401916310866696,-34.6383225435853,187,TELECENTRO,SOFTWARE,Nacional,En Operación,ene-16,2016,01,CABA,Lavarden,153,3 piso,,Parque Patricios,Comuna 4,1437.0,C1437FBC
-58.401850262579295,-34.6415723629489,188,CAECE/CAMARA ARGENTINA DE COMERCIO,EDUCACION,Nacional,En Obra,dic-17,2017,12,CABA,Pedro Chutro,2851,,,Parque Patricios,Comuna 4,1437.0,C1437IYE
-58.4117666653551,-34.634543849899,189,TECNOSOFTWARE SA,SOFTWARE,Nacional,En Obra,ene-18,2018,01,CABA,Av. Chiclana,3345,Piso 3 A segundo cuerpo,,Boedo,Comuna 5,1260.0,C1260ACA
-58.4117666653551,-34.634543849899,190,TSOFT SA,SOFTWARE,Nacional,En Obra,ene-18,2018,01,CABA,Av. Chiclana,3345,,,Boedo,Comuna 5,1260.0,C1260ACA
-58.404360839699,-34.6392708809895,191,ISBAN,SOFTWARE,Extranjero,En Operación,ene-17,2017,01,CABA,Uspallata,2953,,,Parque Patricios,Comuna 4,1437.0,C1437JCG
-58.4006229599957,-34.6364545016719,192,WWW:COM:AR,SOFTWARE,Nacional,En Obra,ene-17,2017,01,CABA,Luna,17,,,Parque Patricios,Comuna 4,1437.0,C1437FEC
-58.411864522922706,-34.636392696968,193,ATOS ARGENTINA S.A.,SOFTWARE,Extranjero,En Obra,mar-17,2017,03,CABA,Virrey Liniers,2240,,,Boedo,Comuna 5,1241.0,C1241ABV
-58.4129559999448,-34.6372662207404,194,INTERGRABO,SOFTWARE,Nacional,En Operación,abr-16,2016,04,CABA,Rondeau,3466,,,Boedo,Comuna 5,1262.0,C1262ABX
-58.399369014219296,-34.633458239053695,195,DATAWISE S.A.,SOFTWARE,Nacional,En Obra,may-16,2016,05,CABA,15 de Noviembre de 1889,2573,,,Parque Patricios,Comuna 4,1261.0,C1261AAO
-58.4033012407625,-34.6355553534599,196,Grupo Recaudador S.A,SOFTWARE,Nacional,En Obra,jun-18,2018,06,CABA,Rondeau,2858,4 b,,Parque Patricios,Comuna 4,1262.0,C1262ABL
-58.4033012407625,-34.6355553534599,197,Multivirtual S.A,SOFTWARE,Nacional,En Obra,jun-18,2018,06,CABA,Rondeau,2858,piso 1,,Parque Patricios,Comuna 4,1262.0,C1262ABL
-58.412981785002096,-34.6385764478164,198,SEAC,SOFTWARE,Nacional,En Obra,jun-18,2018,06,CABA,Caseros,3392,Piso 2 B,,Nueva Pompeya,Comuna 4,1263.0,C1263AAP
-58.412981785002096,-34.6385764478164,199,RGP,SOFTWARE,Nacional,En Obra,jun-18,2018,06,CABA,Caseros,3392,Piso 2 A,,Nueva Pompeya,Comuna 4,1263.0,C1263AAP
-58.3981151148053,-34.634734071502,200,PREPAY,SOFTWARE,Nacional,En Operación,jul-16,2016,07,CABA,Rondeau,2520,Piso 4 A,,Parque Patricios,Comuna 4,1262.0,C1262ABF
-58.411804087376204,-34.6389733344597,201,PRAGMATICA TECHNOLOGIES S.A.,SOFTWARE,Nacional,En Obra,ago-16,2016,08,CABA,Almafuerte,63,Piso 4,,Nueva Pompeya,Comuna 4,1437.0,C1437JLA
-58.41333257543611,-34.638269414766505,202,GRUPO NET V,SOFTWARE,Nacional,En Operación,sep-16,2016,09,CABA,Av. Caseros,3405,Piso 4,,Boedo,Comuna 5,1263.0,C1263AAD
-58.399569422489606,-34.6370092120697,203,MONI,SOFTWARE,Nacional,En Operación,sep-16,2016,09,CABA,Patagones,2665,Piso 5 A,,Parque Patricios,Comuna 4,1437.0,C1437JEA
-58.39702775633779,-34.6361198098969,204,ENGY ARGENTINA SA,SOFTWARE,Extranjero,En Operación,oct-16,2016,10,CABA,Manuel Garcia,50,Piso 1,,Parque Patricios,Comuna 4,1284.0,C1284ACB
-58.4062727396805,-34.6370529757825,205,MERCADO LIBRE,SOFTWARE,Nacional,En Obra,sep-18,2018,09,CABA,Av Caseros,3031,,,Parque Patricios,Comuna 4,1264.0,C1264AAK
-58.4004782319367,-34.6329730719431,206,ADVANCED SOFTWARE,SOFTWARE,Nacional,En Operación,oct-16,2016,10,CABA,Catulo Castillo,2630,Piso 1 A,,Parque Patricios,Comuna 4,1261.0,C1261ACH
-58.39702775633779,-34.6361198098969,207,Patrol & Asociados S.A,SOFTWARE,Nacional,En Operación,nov-16,2016,11,CABA,Manuel garcia,50,PB,,Parque Patricios,Comuna 4,1284.0,C1284ACB
-58.4004782319367,-34.6329730719431,208,BLUE DRAFT,SOFTWARE,Nacional,En Operación,nov-16,2016,11,CABA,catulo castillo,2630,Piso 1,,Parque Patricios,Comuna 4,1261.0,C1261ACH
-58.414254433175,-34.636529510009,209,V-TEX,SOFTWARE,Nacional,En Operación,nov-16,2016,11,CABA,Chiclana,3578,Piso 4,,Boedo,Comuna 5,1260.0,C1260ACP
-58.401297560805595,-34.6333746441709,210,SINTECTUR,e-COMMERCE,Nacional,En Obra,dic-17,2017,12,CABA,Catamarca,2026,Piso 1 A,,Parque Patricios,Comuna 4,1246.0,C1246AAR
-58.4124926665777,-34.6480399315418,211,ESETEC,INGENIERIA,Nacional,En Operación,dic-17,2017,12,CABA,Grito de Asencio,3618,,,Nueva Pompeya,Comuna 4,1437.0,C1437IML
-58.3990016154922,-34.6349666470905,212,MERLIN,SOFTWARE,Nacional,En Operación,dic-16,2016,12,CABA,Jujuy,2122,Piso 8,,Parque Patricios,Comuna 4,1247.0,C1247ABW
-58.40887165828871,-34.641491996402195,213,T-MOB SRL,SOFTWARE,Nacional,En Operación,dic-16,2016,12,CABA,Pepiri,286,PISO 3,,Parque Patricios,Comuna 4,1437.0,C1437EIF
-58.4065795657226,-34.6421741088592,214,LOGISTICS TRACK SRL,SOFTWARE,Nacional,En Operación,dic-16,2016,12,CABA,CHUTRO,3135,,,Parque Patricios,Comuna 4,1437.0,C1437IYK
-58.397755127896396,-34.6412989914997,215,CPS COMUNICACIONES SA (METROTEL),DATA CENTER,Nacional,En Obra,jul-17,2017,07,CABA,Pedro Chutro,2668,,,Parque Patricios,Comuna 4,1437.0,C1437IYB
-58.3981138800834,-34.6376375439115,216,CMD - COMPAÑÍA MEDIOS DIGITALES,BPO,Nacional,En Operación,nov-10,2010,11,CABA,COLONIA,156,,,Parque Patricios,Comuna 4,1437.0,C1437JND
-58.4098119969098,-34.6530105997835,217,SYSTEM MASTER,SOFTWARE,Nacional,En Operación,mar-14,2014,03,CABA,BEAZLEY,3549,,,Nueva Pompeya,Comuna 4,1437.0,C1437HQA
-58.4021369875545,-34.638931683966305,218,CORA-DIR,HARDWARE,Nacional,En Operación,Previo Ley 2972,Previo Ley 2972,Previo Ley 2972,CABA,USPALLATA,2853,,,Parque Patricios,Comuna 4,1437.0,C1437JCE
-58.4008657085798,-34.6387663277033,219,NOVATECH,HARDWARE,Nacional,En Operación,mar-10,2010,03,CABA,USPALLATA,2768,,,Parque Patricios,Comuna 4,1437.0,C1437JCD
-58.406676615887,-34.6338117018886,220,BANGHO,HARDWARE,Nacional,En Operación,ago-11,2011,08,CABA,BRASIL,3031,,,Parque Patricios,Comuna 4,1260.0,C1260AAM
-58.4008657085798,-34.6387663277033,221,GRUPO NUCLEO,HARDWARE,Nacional,En Operación,may-14,2014,05,CABA,USPALLATA,2768,,,Parque Patricios,Comuna 4,1437.0,C1437JCD
-58.3981138800834,-34.6376375439115,222,TECDIA,BPO,Nacional,En Operación,oct-13,2013,10,CABA,COLONIA,156,,,Parque Patricios,Comuna 4,1437.0,C1437JND
-58.4047929659667,-34.6395001268479,223,INTEROPTICS,SOFTWARE,Nacional,En Operación,nov-11,2011,11,CABA,USPALLATA,2983,,,Parque Patricios,Comuna 4,1437.0,C1437JCG
-58.404235528890496,-34.632970362128894,224,NITIS,SOFTWARE,Nacional,En Operación,abr-13,2013,04,CABA,BRASIL,2883,,,Parque Patricios,Comuna 4,1260.0,C1260AAK
-58.3997051030947,-34.633987446695,225,DESPEGAR.COM,e-COMMERCE,Extranjero,En Operación,dic-12,2012,12,CABA,AV. JUJUY,2013,,,Parque Patricios,Comuna 4,1247.0,C1247ABI
-58.3977488554171,-34.6369016090403,226,GC GESTIÓN COMPARTIDA,BPO,Nacional,En Operación,ago-13,2013,08,CABA,PATAGONES,2548,,,Parque Patricios,Comuna 4,1282.0,C1282ACD
-58.406695052230994,-34.642324225463,227,LUGALU,SOFTWARE,Nacional,En Operación,dic-13,2013,12,CABA,DR. PEDRO CHUTRO,3135,,,Parque Patricios,Comuna 4,1437.0,C1437IYK
-58.4127182558733,-34.6370327606532,228,POSNET,DATA CENTER,Extranjero,En Operación,ago-14,2014,08,CABA,RONDEAU,3439,,,Boedo,Comuna 5,1262.0,C1262ABW
-58.4127182558733,-34.6370327606532,229,FIRST DATA,DATA CENTER,Extranjero,En Operación,ago-14,2014,08,CABA,RONDEAU,3439,,,Boedo,Comuna 5,1262.0,C1262ABW
-58.4109905141975,-34.651748425845106,230,CENTRY SA,HARDWARE,Nacional,En Operación,dic-14,2014,12,CABA,Cachi,774,,,Nueva Pompeya,Comuna 4,1437.0,C1437DZF
-58.402778562607295,-34.641061874207395,231,USAL,EDUCACION,Nacional,En Obra,dic-16,2016,12,CABA,ZAVALETA,330,,,Parque Patricios,Comuna 4,1437.0,C1437EYH
-58.4017367724511,-34.6383536849924,232,EDS,SOFTWARE,Nacional,En Operación,ene-17,2017,01,CABA,Lavardén,153,,,Parque Patricios,Comuna 4,1437.0,C1437FBC
-58.415195736228,-34.6388462724057,233,GIRE/Rapipago.,SOFTWARE,Nacional,En Obra,ene-18,2018,01,CABA,Av. Caseros,3568,,,Nueva Pompeya,Comuna 4,1263.0,C1263AAR
-58.4150327974008,-34.6443965297755,234,LA CASA DEL LED,DOMOTICA,Nacional,En Obra,ene-17,2017,01,CABA,Andres Ferreyra,3785,3,,Nueva Pompeya,Comuna 4,1437.0,C1437ITE
-58.3990809237602,-34.6361691890606,235,SMS SRL,BPO,Nacional,En Operación,abr-16,2016,04,CABA,av. Caseros,2602,Piso 1 A,,Parque Patricios,Comuna 4,1264.0,C1264AAT
-58.411994131005294,-34.6363675474979,253,ATOS ARGENTINA S.A.,SOFTWARE,Extranjero,En Obra,,-,-,CABA,Virrey Liniers,2240,,,Boedo,Comuna 5,1241.0,C1241ABV
-58.4128406448956,-34.6371541321542,254,INTERGRABO,SOFTWARE,Nacional,En Operación,Abril 2016,2016,04,CABA,Rondeau,3466,,,Boedo,Comuna 5,1262.0,C1262ABX
-58.3993055945964,-34.6335487718397,255,DATAWISE S.A.,SOFTWARE,Nacional,En Obra,mayo 2016,2016,05,CABA,15 de Noviembre de 1889,2573,,,Parque Patricios,Comuna 4,1261.0,C1261AAO
-58.40350044103229,-34.635467423002304,256,Grupo Recaudador S.A,SOFTWARE,Nacional,En Obra,Junio 2018,2018,06,CABA,Rondeau,2858,,,Parque Patricios,Comuna 4,1262.0,C1262ABL
-58.40350044103229,-34.635467423002304,257,Multivirtual S.A,SOFTWARE,Nacional,En Obra,Junio 2018,2018,06,CABA,Rondeau,2858,,,Parque Patricios,Comuna 4,1262.0,C1262ABL
-58.4129418231563,-34.6384671564722,258,SEAC,SOFTWARE,Nacional,En Obra,Junio 2018,2018,06,CABA,Av. Caseros,3392,2° B,,Nueva Pompeya,Comuna 4,1263.0,C1263AAP
-58.4129374476073,-34.638488789179895,259,RGP,SOFTWARE,Nacional,En Obra,Junio 2018,2018,06,CABA,Caseros,3392,2° A,,Nueva Pompeya,Comuna 4,1263.0,C1263AAP
-58.3981828454696,-34.634637173967,260,PREPAY,SOFTWARE,Nacional,En Operación,Julio 2016,2016,07,CABA,Rondeau,2520,4to A,,Parque Patricios,Comuna 4,1262.0,C1262ABF
-58.4119643804335,-34.6394539371192,261,PRAGMATICA TECHNOLOGIES S.A.,SOFTWARE,Nacional,En Obra,,-,-,CABA,Almafuerte,63,4to Piso,Agosto 2016,Nueva Pompeya,Comuna 4,1437.0,C1437JLA
-58.405392235863,-34.644920885901,262,LAMBDA SISTEMAS SRL,SOFTWARE,Nacional,En Operación,Enero 2017,2017,01,CABA,Iguazu,656,,,Parque Patricios,Comuna 4,1437.0,C1437ETJ
-58.397312827000796,-34.6393631567305,263,PRETECO S.A.,SOFTWARE,Nacional,En Obra,Feb.2017,2017,02,CABA,Los Patos,2590,,,Parque Patricios,Comuna 4,1283.0,C1283ACD
-58.3990409752637,-34.6350619899716,264,Clever Functional Team Srl,SOFTWARE,Nacional,En Obra,Feb.2017,2017,02,CABA,Jujuy,2122,3°,,Parque Patricios,Comuna 4,1247.0,C1247ABW
-58.402296462873494,-34.6376689740206,265,COMBRIL S.A.,SOFTWARE,Nacional,En Operación,Feb.2017,2017,02,CABA,Patagones,2827,1°,,Parque Patricios,Comuna 4,1437.0,C1437JEE
-58.4062439452294,-34.6371058246082,266,HUAWEI,SOFTWARE,Extranjero,En Obra,Marzo 2017,2017,03,CABA,Av. Caseros,3031,,,Parque Patricios,Comuna 4,1264.0,C1264AAK
-58.3995759798592,-34.637106701238295,267,DIBUSOFT SRL,SOFTWARE,Nacional,En Obra,Feb.2017,2017,02,CABA,Patagones,2665,2°A,,Parque Patricios,Comuna 4,1437.0,C1437JEA
-58.39747148768289,-34.636850058231104,268,CENTRAL DATA NET  S.A.,SOFTWARE,Nacional,En Obra,Marzo 2017,2017,03,CABA,Patagones,2538,,,Parque Patricios,Comuna 4,1282.0,C1282ACD
-58.41623540100821,-34.6391049774617,269,NEXTVISION S.A.,SOFTWARE,Nacional,En Obra,Mayo 2017,2017,05,CABA,Av. Saenz,5,,,Nueva Pompeya,Comuna 4,1437.0,C1437DNA
-58.4088113465226,-34.6433497288792,270,INTERNATIONAL MEDIA CONSULTING GROUP S.A.,SOFTWARE,Nacional,En Obra,mayo 2017,2017,05,CABA,Elia,457,,,Parque Patricios,Comuna 4,1437.0,C1437ELA
-58.4090287296303,-34.636244184812305,271,ACCENTURE,SOFTWARE,Extranjero,En Obra,Mayo 2017,2017,05,CABA,Rondeau,0,,24 de Noviembre,Parque Patricios,Comuna 4,,
-58.4069172261735,-34.6444144109774,272,SUARTEC SA,SOFTWARE,Nacional,En Obra,Junio 2017,2017,06,CABA,Atuel,590,,,Parque Patricios,Comuna 4,1437.0,C1437EPH
-58.41293744545361,-34.638492394927894,273,Q-TECH,SOFTWARE,Nacional,En Obra,Junio 2017,2017,06,CABA,Av. Caseros,3392,3° A,,Nueva Pompeya,Comuna 4,1263.0,C1263AAP
-58.41595083033461,-34.6380633963484,274,S4M,SOFTWARE,Nacional,En Obra,Junio 2017,2017,06,CABA,Av. Boedo,2054,,,Boedo,Comuna 5,1239.0,C1239AAX
-58.400427523691704,-34.6365339163758,275,EXPERTICE  S.A.,SOFTWARE,Nacional,En Obra,Julio 2017,2017,07,CABA,Luna,17,6,,Parque Patricios,Comuna 4,1437.0,C1437FEC
-58.411823003508204,-34.646621714294895,276,SOLCOY SRL,SOFTWARE,Nacional,En Obra,Julio 2017,2017,07,CABA,Famatina,3558,,,Parque Patricios,Comuna 4,1437.0,C1437ION
-58.4128084740543,-34.6401370364254,277,LAGASH SYSTEMS S.A.,SOFTWARE,Nacional,En Obra,Julio 2017,2017,07,CABA,Diogenes Taborda,127,,,Nueva Pompeya,Comuna 4,1437.0,C1437EFC
-58.400427523691704,-34.6365339163758,278,SISTEMAS DYPSA SRL,SOFTWARE,Nacional,En Obra,Agosto 2017,2017,08,CABA,Luna,17,2° 3° y 4°,,Parque Patricios,Comuna 4,1437.0,C1437FEC
-58.4017367724511,-34.6383536849924,279,Nat Consultores SRL,SOFTWARE,Nacional,En Operación,Agosto 2017,2017,08,CABA,Lavarden,153,,,Parque Patricios,Comuna 4,1437.0,C1437FBC
-58.3975899226622,-34.639503161680196,280,IATASA INGE Y ASIST TECN ARG SA DE SERV PROF ATEC SA GEOCONSULT BUENOS AIRES SA UTE,INGENIERIA,Nacional,En Operación,Agosto 2017,2017,08,CABA,Colonia,309,,,Parque Patricios,Comuna 4,1437.0,C1437JNG
-58.40229656995479,-34.6360304140885,281,NOVARED SA,SOFTWARE,Extranjero,En Obra,Septiembre 2019,2019,09,CABA,Esteban De Luca,2251,,,Parque Patricios,Comuna 4,1246.0,C1246ABS
-58.3990758555704,-34.6350872484257,282,CONSULTORIA GLOBAL SA,SOFTWARE,Nacional,En Obra,Septiembre 2019,2019,09,CABA,Av. Jujuy,2122,,,Parque Patricios,Comuna 4,1247.0,C1247ABW
-58.40974573449,-34.6377572381136,283,BAPRO MEDIOS DE PAGO SA,SOFTWARE,Nacional,En Operación,,-,-,CABA,CASEROS,3227,,,Parque Patricios,Comuna 4,1263.0,C1263AAB
-58.4017367724511,-34.6383536849924,284,IKE ASISTENCIA ARGENTINA SA,SOFTWARE,Nacional,En Operación,,-,-,CABA,Lavarden,153,,,Parque Patricios,Comuna 4,1437.0,C1437FBC
-58.403220873903706,-34.6367757345611,285,TECNOCODE SA,SOFTWARE,Nacional,En Obra,Noviembre 2017,2017,11,CABA,Av. Caseros,2862,,,Parque Patricios,Comuna 4,1264.0,C1264AAV
-58.399893238585996,-34.6329722891789,286,AMERICA VIRTUAL S.A.,SOFTWARE,Nacional,En Obra,Noviembre 2019,2019,11,CABA,Av.Jujuy,1926,,,Parque Patricios,Comuna 4,1247.0,C1247ABU
-58.40350044103229,-34.635467423002304,287,Tecnologias Informaticas Integradas SA,SOFTWARE,Nacional,En Operación,Noviembre 2017,2017,11,CABA,Rondeau,2858,,,Parque Patricios,Comuna 4,1262.0,C1262ABL
-58.40902796285361,-34.636468313618195,288,ACCENTURE SERVICE CENTER SRL,SOFTWARE,Extranjero,En Obra,Noviembre 2019,2019,11,CABA,24 de Noviembre,2120,,Rondeau,Parque Patricios,Comuna 4,1242.0,C1242AAT
-58.4133768723699,-34.6383962995989,289,PUNTO NEX SRL,SOFTWARE,,En Operación,,-,-,CABA,Av. Caseros,3405,,,Boedo,Comuna 5,1263.0,C1263AAD
-58.4059809736463,-34.637105006325896,290,NEORIS ARGENTINA SA,SOFTWARE,,En Obra,,-,-,CABA,Av. Caseros,3017,,,Parque Patricios,Comuna 4,1264.0,C1264AAK
-58.4059809736463,-34.637105006325896,291,NEORIS CONSULTING ARGENTINA SA,SOFTWARE,,En Obra,,-,-,CABA,Av. Caseros,3017,,,Parque Patricios,Comuna 4,1264.0,C1264AAK
-58.4059809736463,-34.637105006325896,292,NEORIS ONE ARGENTINA SA,SOFTWARE,,En Obra,,-,-,CABA,Av. Caseros,3017,,,Parque Patricios,Comuna 4,1264.0,C1264AAK
-58.406269910766895,-34.641625952243,293,Gesnext Argentina S.A,SOFTWARE,Extranjero,En Operación,,-,-,CABA,Iguazu,341,,,Parque Patricios,Comuna 4,1437.0,C1437ETC
-58.3990758555704,-34.6350872484257,294,TRX SA,SOFTWARE,Nacional,En Operación,,-,-,CABA,Av. Jujuy,2122,,,Parque Patricios,Comuna 4,1247.0,C1247ABW
-58.39744679150021,-34.6354376058613,295,BELLTECH ARGENTINA SA,SOFTWARE,Extranjero,En Obra,,-,-,CABA,Alberti,2154,,Caseros,Parque Patricios,Comuna 4,1247.0,C1247AAT
-58.4148908917673,-34.6386617238768,296,IT DEAS SA,SOFTWARE,Nacional,En Obra,,-,-,CABA,Av. Caseros,3515,,,Boedo,Comuna 5,1263.0,C1263AAE
-58.4049173315064,-34.6404951655479,297,ASSERTIO ARGENTINA SA,SOFTWARE,Nacional,En Operación,,-,-,CABA,Monteagudo,252,,,Parque Patricios,Comuna 4,1437.0,C1437EVF
-58.4049173315064,-34.6404951655479,298,SOFTSEG SA,SOFTWARE,Nacional,En Operación,,-,-,CABA,Monteagudo,252,,,Parque Patricios,Comuna 4,1437.0,C1437EVF
-58.4049173315064,-34.6404951655479,299,IPSOL SA,SOFTWARE,Nacional,En Operación,,-,-,CABA,Monteagudo,252,,,Parque Patricios,Comuna 4,1437.0,C1437EVF
-58.4049173315064,-34.6404951655479,300,INWORX ARGENTINA SA,SOFTWARE,Nacional,En Operación,,-,-,CABA,Monteagudo,252,,,Parque Patricios,Comuna 4,1437.0,C1437EVF
-58.4129418231563,-34.6384671564722,301,XELERE SA,SOFTWARE,Nacional,En Obra,Enero 2020,2020,01,CABA,Av. Caseros,3392,,,Nueva Pompeya,Comuna 4,1263.0,C1263AAP
-58.4129418231563,-34.6384671564722,302,CONSULTING SERVICE SRL,SOFTWARE,Nacional,En Obra,,-,-,CABA,Av. Caseros,3392,,,Nueva Pompeya,Comuna 4,1263.0,C1263AAP
-58.4003291923979,-34.6368093722712,303,"Pistrelli, Henry Martin y Asoc. SRL",SOFTWARE,Extranjero,En Obra,,-,-,,Luna,49,,,Parque Patricios,Comuna 4,1437.0,C1437FEC
-58.40340827832971,-34.6368086531728,304,Ideas In Motion SRL,SOFTWARE,Nacional,En Operación,,-,-,,Av. Caseros,2874,,,Parque Patricios,Comuna 4,1264.0,C1264AAV
-58.4129418231563,-34.6384671564722,305,Readymind SRL,SOFTWARE,Nacional,En Operación,,-,-,CABA,Av. Caseros,3392,,,Nueva Pompeya,Comuna 4,1263.0,C1263AAP
-58.397337113979,-34.6354497435808,306,Soflex SA,SOFTWARE,Nacional,En Operación,,-,-,CABA,Alberti,0,,Av. Caseros,Parque Patricios,Comuna 4,,
-58.40350044103229,-34.635467423002304,307,Next Level Solutions SAS,SOFTWARE,Nacional,En Operación,,-,-,CABA,Rondeau,2858,,,Parque Patricios,Comuna 4,1262.0,C1262ABL
-58.4006758750173,-34.637452659714604,308,PROKARMA,SOFTWARE,Extranjero,En Operación,,-,-,CABA,Patagones,2740,,,Parque Patricios,Comuna 4,1437.0,C1437JED
-58.4115173373266,-34.634469976954,309,SION SA,SOFTWARE,Nacional,En Operación,,-,-,CABA,Chiclana,3345,,,Boedo,Comuna 5,1260,C1260ACA
-58.415195736228,-34.6388462724057,310,Gire Soluciones,SOFTWARE,Nacional,En Obra,,-,-,CABA,Av. Caseros,3568,,,Nueva Pompeya,Comuna 4,1263,C1263AAR
-58.3995846749223,-34.6371463689809,311,Fennoma SA,SOFTWARE,Nacional,En Operación,,-,-,CABA,Patagones,2665,,,Parque Patricios,Comuna 4,1437,C1437JEA
-58.4035004410323,-34.6354674230023,312,Disytel Consulting SA,SOFTWARE,Nacional,En Operación,,-,-,CABA,Rondeau,2858,,,Parque Patricios,Comuna 4,1262,C1262ABL
-58.3990019226049,-34.6353067892482,313,Servicios Computables S.A.,SOFTWARE,Nacional,En Operación,,-,-,CABA,Av. Jujuy,2156,,,Parque Patricios,Comuna 4,1247,C1247ABW
-58.4122864151488,-34.638352072162,314,Neologics SRL,SOFTWARE,Nacional,En Operación,,-,-,CABA,Av. Caseros,3350,9 B,,Nueva Pompeya,Comuna 4,1263,C1263AAP
-58.4035511342176,-34.6354788050863,315,Orbith SA,SOFTWARE,Nacional,En Operación,,-,-,CABA,Rondeau,2862,PB,,Parque Patricios,Comuna 4,1262,C1262ABL
-58.4122864151488,-34.638352072162,316,Crossfinder SA,SOFTWARE,Nacional,En Operación,,-,-,CABA,Caseros,3350,,,Nueva Pompeya,Comuna 4,1263,C1263AAP
-58.3990019226049,-34.6353067892482,317,AUDIT A&A SAS,SOFTWARE,Nacional,En Operación,,-,-,CABA,Jujuy,2156,6 A,,Parque Patricios,Comuna 4,1247,C1247ABW
-58.4148908917673,-34.6386617238768,318,CALYX SERVICIOS SA,SOFTWARE,Extranjero,En Obra,,-,-,CABA,Av. Caseros,3515,1 B,,Boedo,Comuna 5,1263,C1263AAE
-58.3990019226049,-34.6353067892482,319,EMPRENDIMIENTOS SATELITALES SA,SOFTWARE,Nacional,En Operación,,-,-,CABA,Av. Jujuy,2156,5 a,,Parque Patricios,Comuna 4,1247,C1247ABW
-58.3975779191401,-34.6351131584127,320,Lightech SA,SOFTWARE,Nacional,En Obra,,-,-,CABA,Alberti,2154,,,Parque Patricios,Comuna 4,1247,C1247AAT
-58.4122864151488,-34.638352072162,321,Ubinet SA,SOFTWARE,Nacional,En Operación,,-,-,,Av. Caseros,3350,3 a,,Nueva Pompeya,Comuna 4,1263,C1263AAP
-58.4148530904338,-34.6444396676709,322,DANAIDE SA,SOFTWARE,Nacional,En Operación,,-,-,CABA,Andres Ferreyra,3769,,,Nueva Pompeya,Comuna 4,1437,C1437ITE
-58.4148908917673,-34.6386617238768,324,CDA INFORMATICA SA,SOFTWARE,Nacional,En Operación,,-,-,CABA,Av. Caseros,3515,8,,Boedo,Comuna 5,1263,C1263AAE
-58.3999410415053,-34.6334001213673,325,Leph Tech SRL,SOFTWARE,Nacional,En Operación,,-,-,CABA,Av. Jujuy,1963,7 c,,Parque Patricios,Comuna 4,1247,C1247ABH
